{
    "week": 295,
    "satellites": [
        {
            "Name": "GSAT0101 (GALILEO-PFM)",
            "Line1": "1 37846U 11060A   24337.48651640 -.00000061  00000+0  00000+0 0  9995",
            "Line2": "2 37846  57.1202 356.9814 0002428 309.2642  50.7660  1.70475834 81546",
            "SatelliteNumber": "37846",
            "Classification": "U",
            "LaunchYear": "11",
            "LaunchNumber": "060",
            "PieceOfLaunch": "A",
            "EpochYear": "24",
            "EpochDay": 337.4865164,
            "FirstDerivativeMeanMotion": -6.1e-07,
            "SecondDerivativeMeanMotion": "00000+0",
            "BSTAR": "00000+0",
            "SetNumber": "999",
            "Inclination": 57.1202,
            "RAAN": 356.9814,
            "Eccentricity": 0.0002428,
            "ArgumentOfPerigee": 309.2642,
            "MeanAnomaly": 50.766,
            "MeanMotion": 1.70475834,
            "RevolutionNumber": "8154"
        },
        {
            "Name": "GSAT0102 (GALILEO-FM2)",
            "Line1": "1 37847U 11060B   24335.05882696 -.00000066  00000+0  00000+0 0  9999",
            "Line2": "2 37847  57.1210 357.0473 0004357 302.6759  52.8093  1.70475421 81509",
            "SatelliteNumber": "37847",
            "Classification": "U",
            "LaunchYear": "11",
            "LaunchNumber": "060",
            "PieceOfLaunch": "B",
            "EpochYear": "24",
            "EpochDay": 335.05882696,
            "FirstDerivativeMeanMotion": -6.6e-07,
            "SecondDerivativeMeanMotion": "00000+0",
            "BSTAR": "00000+0",
            "SetNumber": "999",
            "Inclination": 57.121,
            "RAAN": 357.0473,
            "Eccentricity": 0.0004357,
            "ArgumentOfPerigee": 302.6759,
            "MeanAnomaly": 52.8093,
            "MeanMotion": 1.70475421,
            "RevolutionNumber": "8150"
        },
        {
            "Name": "GSAT0103 (GALILEO-FM3)",
            "Line1": "1 38857U 12055A   24335.17954675  .00000050  00000+0  00000+0 0  9998",
            "Line2": "2 38857  55.4863 117.0423 0002442 249.8081 110.1297  1.70473515 75394",
            "SatelliteNumber": "38857",
            "Classification": "U",
            "LaunchYear": "12",
            "LaunchNumber": "055",
            "PieceOfLaunch": "A",
            "EpochYear": "24",
            "EpochDay": 335.17954675,
            "FirstDerivativeMeanMotion": 5e-07,
            "SecondDerivativeMeanMotion": "00000+0",
            "BSTAR": "00000+0",
            "SetNumber": "999",
            "Inclination": 55.4863,
            "RAAN": 117.0423,
            "Eccentricity": 0.0002442,
            "ArgumentOfPerigee": 249.8081,
            "MeanAnomaly": 110.1297,
            "MeanMotion": 1.70473515,
            "RevolutionNumber": "7539"
        },
        {
            "Name": "GSAT0201 (GALILEO 5)",
            "Line1": "1 40128U 14050A   24337.25262888 -.00000056  00000+0  00000+0 0  9995",
            "Line2": "2 40128  49.4850 296.2953 1615638 157.7785 210.1317  1.85519623 69834",
            "SatelliteNumber": "40128",
            "Classification": "U",
            "LaunchYear": "14",
            "LaunchNumber": "050",
            "PieceOfLaunch": "A",
            "EpochYear": "24",
            "EpochDay": 337.25262888,
            "FirstDerivativeMeanMotion": -5.6e-07,
            "SecondDerivativeMeanMotion": "00000+0",
            "BSTAR": "00000+0",
            "SetNumber": "999",
            "Inclination": 49.485,
            "RAAN": 296.2953,
            "Eccentricity": 0.1615638,
            "ArgumentOfPerigee": 157.7785,
            "MeanAnomaly": 210.1317,
            "MeanMotion": 1.85519623,
            "RevolutionNumber": "6983"
        },
        {
            "Name": "GSAT0202 (GALILEO 6)",
            "Line1": "1 40129U 14050B   24336.43231097 -.00000061  00000+0  00000+0 0  9999",
            "Line2": "2 40129  49.5021 295.4077 1614992 158.5364 209.1180  1.85520356 70044",
            "SatelliteNumber": "40129",
            "Classification": "U",
            "LaunchYear": "14",
            "LaunchNumber": "050",
            "PieceOfLaunch": "B",
            "EpochYear": "24",
            "EpochDay": 336.43231097,
            "FirstDerivativeMeanMotion": -6.1e-07,
            "SecondDerivativeMeanMotion": "00000+0",
            "BSTAR": "00000+0",
            "SetNumber": "999",
            "Inclination": 49.5021,
            "RAAN": 295.4077,
            "Eccentricity": 0.1614992,
            "ArgumentOfPerigee": 158.5364,
            "MeanAnomaly": 209.118,
            "MeanMotion": 1.85520356,
            "RevolutionNumber": "7004"
        },
        {
            "Name": "GSAT0203 (GALILEO 7)",
            "Line1": "1 40544U 15017A   24337.26533323 -.00000061  00000+0  00000+0 0  9993",
            "Line2": "2 40544  56.9149 356.8985 0006113 263.8341  96.1481  1.70476094 59624",
            "SatelliteNumber": "40544",
            "Classification": "U",
            "LaunchYear": "15",
            "LaunchNumber": "017",
            "PieceOfLaunch": "A",
            "EpochYear": "24",
            "EpochDay": 337.26533323,
            "FirstDerivativeMeanMotion": -6.1e-07,
            "SecondDerivativeMeanMotion": "00000+0",
            "BSTAR": "00000+0",
            "SetNumber": "999",
            "Inclination": 56.9149,
            "RAAN": 356.8985,
            "Eccentricity": 0.0006113,
            "ArgumentOfPerigee": 263.8341,
            "MeanAnomaly": 96.1481,
            "MeanMotion": 1.70476094,
            "RevolutionNumber": "5962"
        },
        {
            "Name": "GSAT0204 (GALILEO 8)",
            "Line1": "1 40545U 15017B   24336.34682491 -.00000063  00000+0  00000+0 0  9995",
            "Line2": "2 40545  56.9212 356.9397 0005856 253.4144 106.5751  1.70475723 22650",
            "SatelliteNumber": "40545",
            "Classification": "U",
            "LaunchYear": "15",
            "LaunchNumber": "017",
            "PieceOfLaunch": "B",
            "EpochYear": "24",
            "EpochDay": 336.34682491,
            "FirstDerivativeMeanMotion": -6.3e-07,
            "SecondDerivativeMeanMotion": "00000+0",
            "BSTAR": "00000+0",
            "SetNumber": "999",
            "Inclination": 56.9212,
            "RAAN": 356.9397,
            "Eccentricity": 0.0005856,
            "ArgumentOfPerigee": 253.4144,
            "MeanAnomaly": 106.5751,
            "MeanMotion": 1.70475723,
            "RevolutionNumber": "2265"
        },
        {
            "Name": "GSAT0205 (GALILEO 9)",
            "Line1": "1 40889U 15045A   24336.11537301  .00000027  00000+0  00000+0 0  9990",
            "Line2": "2 40889  55.1448 237.1605 0005979  34.1385 325.9762  1.70473044 57417",
            "SatelliteNumber": "40889",
            "Classification": "U",
            "LaunchYear": "15",
            "LaunchNumber": "045",
            "PieceOfLaunch": "A",
            "EpochYear": "24",
            "EpochDay": 336.11537301,
            "FirstDerivativeMeanMotion": 2.7e-07,
            "SecondDerivativeMeanMotion": "00000+0",
            "BSTAR": "00000+0",
            "SetNumber": "999",
            "Inclination": 55.1448,
            "RAAN": 237.1605,
            "Eccentricity": 0.0005979,
            "ArgumentOfPerigee": 34.1385,
            "MeanAnomaly": 325.9762,
            "MeanMotion": 1.70473044,
            "RevolutionNumber": "5741"
        },
        {
            "Name": "GSAT0206 (GALILEO 10)",
            "Line1": "1 40890U 15045B   24336.92254347  .00000032  00000+0  00000+0 0  9993",
            "Line2": "2 40890  55.1430 237.1333 0003112   9.1861 350.9008  1.70473129 57455",
            "SatelliteNumber": "40890",
            "Classification": "U",
            "LaunchYear": "15",
            "LaunchNumber": "045",
            "PieceOfLaunch": "B",
            "EpochYear": "24",
            "EpochDay": 336.92254347,
            "FirstDerivativeMeanMotion": 3.2e-07,
            "SecondDerivativeMeanMotion": "00000+0",
            "BSTAR": "00000+0",
            "SetNumber": "999",
            "Inclination": 55.143,
            "RAAN": 237.1333,
            "Eccentricity": 0.0003112,
            "ArgumentOfPerigee": 9.1861,
            "MeanAnomaly": 350.9008,
            "MeanMotion": 1.70473129,
            "RevolutionNumber": "5745"
        },
        {
            "Name": "GSAT0209 (GALILEO 12)",
            "Line1": "1 41174U 15079A   24337.09167231  .00000047  00000+0  00000+0 0  9996",
            "Line2": "2 41174  55.5067 116.7005 0001879 343.8499  16.1033  1.70474469 55198",
            "SatelliteNumber": "41174",
            "Classification": "U",
            "LaunchYear": "15",
            "LaunchNumber": "079",
            "PieceOfLaunch": "A",
            "EpochYear": "24",
            "EpochDay": 337.09167231,
            "FirstDerivativeMeanMotion": 4.7e-07,
            "SecondDerivativeMeanMotion": "00000+0",
            "BSTAR": "00000+0",
            "SetNumber": "999",
            "Inclination": 55.5067,
            "RAAN": 116.7005,
            "Eccentricity": 0.0001879,
            "ArgumentOfPerigee": 343.8499,
            "MeanAnomaly": 16.1033,
            "MeanMotion": 1.70474469,
            "RevolutionNumber": "5519"
        }
    ]
}